CCSDS_OMM_VERS = 2.0
CREATION_DATE  = 
ORIGINATOR     = 

OBJECT_NAME    = STARLINK-36128
OBJECT_ID      = 2025-281AB
CENTER_NAME    = EARTH
REF_FRAME      = TEME
TIME_SYSTEM    = UTC
MEAN_ELEMENT_THEORY = SGP/SGP4

EPOCH          = 2025-12-12T06:00:00.999648
MEAN_MOTION    = 15.93340485
ECCENTRICITY   = .00018151
INCLINATION    = 43.0010
RA_OF_ASC_NODE = 125.2538
ARG_OF_PERICENTER = 262.1723
MEAN_ANOMALY   = 30.5007

EPHEMERIS_TYPE = 0
CLASSIFICATION_TYPE = U
NORAD_CAT_ID   = 66873
ELEMENT_SET_NO = 999
REV_AT_EPOCH   = 135
BSTAR          = -.41500681E-2
MEAN_MOTION_DOT = -.1526386E-1
MEAN_MOTION_DDOT = .6638334E-3

CCSDS_OMM_VERS = 2.0
CREATION_DATE  = 
ORIGINATOR     = 

OBJECT_NAME    = STARLINK-36129
OBJECT_ID      = 2025-281AC
CENTER_NAME    = EARTH
REF_FRAME      = TEME
TIME_SYSTEM    = UTC
MEAN_ELEMENT_THEORY = SGP/SGP4

EPOCH          = 2025-12-12T06:00:00.999648
MEAN_MOTION    = 15.93258510
ECCENTRICITY   = .0001686
INCLINATION    = 43.0013
RA_OF_ASC_NODE = 125.2671
ARG_OF_PERICENTER = 267.2057
MEAN_ANOMALY   = 20.2944

EPHEMERIS_TYPE = 0
CLASSIFICATION_TYPE = U
NORAD_CAT_ID   = 66874
ELEMENT_SET_NO = 999
REV_AT_EPOCH   = 135
BSTAR          = -.41201501E-2
MEAN_MOTION_DOT = -.1509012E-1
MEAN_MOTION_DDOT = .6494935E-3

CCSDS_OMM_VERS = 2.0
CREATION_DATE  = 
ORIGINATOR     = 

OBJECT_NAME    = STARLINK-36053
OBJECT_ID      = 2025-281AD
CENTER_NAME    = EARTH
REF_FRAME      = TEME
TIME_SYSTEM    = UTC
MEAN_ELEMENT_THEORY = SGP/SGP4

EPOCH          = 2025-12-12T06:00:00.999648
MEAN_MOTION    = 15.93376200
ECCENTRICITY   = .00017508
INCLINATION    = 43.0012
RA_OF_ASC_NODE = 125.2459
ARG_OF_PERICENTER = 265.2946
MEAN_ANOMALY   = 30.1950

EPHEMERIS_TYPE = 0
CLASSIFICATION_TYPE = U
NORAD_CAT_ID   = 66875
ELEMENT_SET_NO = 999
REV_AT_EPOCH   = 135
BSTAR          = -.41304155E-2
MEAN_MOTION_DOT = -.1522065E-1
MEAN_MOTION_DDOT = .66061652E-3

CCSDS_OMM_VERS = 2.0
CREATION_DATE  = 
ORIGINATOR     = 

OBJECT_NAME    = STARLINK-35702
OBJECT_ID      = 2025-281AE
CENTER_NAME    = EARTH
REF_FRAME      = TEME
TIME_SYSTEM    = UTC
MEAN_ELEMENT_THEORY = SGP/SGP4

EPOCH          = 2025-12-12T06:00:00.999648
MEAN_MOTION    = 15.93299415
ECCENTRICITY   = .0001838
INCLINATION    = 43.0015
RA_OF_ASC_NODE = 125.2588
ARG_OF_PERICENTER = 265.6841
MEAN_ANOMALY   = 25.0348

EPHEMERIS_TYPE = 0
CLASSIFICATION_TYPE = U
NORAD_CAT_ID   = 66876
ELEMENT_SET_NO = 999
REV_AT_EPOCH   = 135
BSTAR          = -.41288829E-2
MEAN_MOTION_DOT = -.1515442E-1
MEAN_MOTION_DDOT = .65484982E-3

CCSDS_OMM_VERS = 2.0
CREATION_DATE  = 
ORIGINATOR     = 

OBJECT_NAME    = ZQ-3 R/B
OBJECT_ID      = 2025-282A
CENTER_NAME    = EARTH
REF_FRAME      = TEME
TIME_SYSTEM    = UTC
MEAN_ELEMENT_THEORY = SGP/SGP4

EPOCH          = 2025-12-11T15:34:54.456096
MEAN_MOTION    = 14.56097159
ECCENTRICITY   = .07931712
INCLINATION    = 56.9524
RA_OF_ASC_NODE = 61.8427
ARG_OF_PERICENTER = 218.0596
MEAN_ANOMALY   = 136.1784

EPHEMERIS_TYPE = 0
CLASSIFICATION_TYPE = U
NORAD_CAT_ID   = 66877
ELEMENT_SET_NO = 999
REV_AT_EPOCH   = 123
BSTAR          = .2423616E-3
MEAN_MOTION_DOT = .1188538E-1
MEAN_MOTION_DDOT = .7424357E-5

CCSDS_OMM_VERS = 2.0
CREATION_DATE  = 
ORIGINATOR     = 

OBJECT_NAME    = 1998-067XS
OBJECT_ID      = 1998-067XS
CENTER_NAME    = EARTH
REF_FRAME      = TEME
TIME_SYSTEM    = UTC
MEAN_ELEMENT_THEORY = SGP/SGP4

EPOCH          = 2025-12-11T19:50:50.396352
MEAN_MOTION    = 15.50491702
ECCENTRICITY   = .00036759
INCLINATION    = 51.6297
RA_OF_ASC_NODE = 146.9447
ARG_OF_PERICENTER = 198.3211
MEAN_ANOMALY   = 161.7647

EPHEMERIS_TYPE = 0
CLASSIFICATION_TYPE = U
NORAD_CAT_ID   = 66906
ELEMENT_SET_NO = 999
REV_AT_EPOCH   = 147
BSTAR          = .60264305E-3
MEAN_MOTION_DOT = .34698E-3
MEAN_MOTION_DDOT = 0

CCSDS_OMM_VERS = 2.0
CREATION_DATE  = 
ORIGINATOR     = 

OBJECT_NAME    = 1998-067XT
OBJECT_ID      = 1998-067XT
CENTER_NAME    = EARTH
REF_FRAME      = TEME
TIME_SYSTEM    = UTC
MEAN_ELEMENT_THEORY = SGP/SGP4

EPOCH          = 2025-12-09T12:07:37.114752
MEAN_MOTION    = 15.50864429
ECCENTRICITY   = .00048036
INCLINATION    = 51.6307
RA_OF_ASC_NODE = 158.4423
ARG_OF_PERICENTER = 208.5081
MEAN_ANOMALY   = 151.5646

EPHEMERIS_TYPE = 0
CLASSIFICATION_TYPE = U
NORAD_CAT_ID   = 66907
ELEMENT_SET_NO = 999
REV_AT_EPOCH   = 111
BSTAR          = .12921241E-2
MEAN_MOTION_DOT = .76342E-3
MEAN_MOTION_DDOT = 0

CCSDS_OMM_VERS = 2.0
CREATION_DATE  = 
ORIGINATOR     = 

OBJECT_NAME    = 1998-067XU
OBJECT_ID      = 1998-067XU
CENTER_NAME    = EARTH
REF_FRAME      = TEME
TIME_SYSTEM    = UTC
MEAN_ELEMENT_THEORY = SGP/SGP4

EPOCH          = 2025-12-11T19:47:12.664032
MEAN_MOTION    = 15.51346926
ECCENTRICITY   = .00046963
INCLINATION    = 51.6299
RA_OF_ASC_NODE = 146.9280
ARG_OF_PERICENTER = 220.0254
MEAN_ANOMALY   = 140.0390

EPHEMERIS_TYPE = 0
CLASSIFICATION_TYPE = U
NORAD_CAT_ID   = 66908
ELEMENT_SET_NO = 999
REV_AT_EPOCH   = 147
BSTAR          = .13269788E-2
MEAN_MOTION_DOT = .79814E-3
MEAN_MOTION_DDOT = 0

CCSDS_OMM_VERS = 2.0
CREATION_DATE  = 
ORIGINATOR     = 

OBJECT_NAME    = SILVERSAT
OBJECT_ID      = 1998-067XV
CENTER_NAME    = EARTH
REF_FRAME      = TEME
TIME_SYSTEM    = UTC
MEAN_ELEMENT_THEORY = SGP/SGP4

EPOCH          = 2025-12-11T19:46:46.158240
MEAN_MOTION    = 15.51450033
ECCENTRICITY   = .00045562
INCLINATION    = 51.6300
RA_OF_ASC_NODE = 146.9260
ARG_OF_PERICENTER = 222.0234
MEAN_ANOMALY   = 138.0406

EPHEMERIS_TYPE = 0
CLASSIFICATION_TYPE = U
NORAD_CAT_ID   = 66909
ELEMENT_SET_NO = 999
REV_AT_EPOCH   = 147
BSTAR          = .13718352E-2
MEAN_MOTION_DOT = .82864E-3
MEAN_MOTION_DDOT = 0

CCSDS_OMM_VERS = 2.0
CREATION_DATE  = 
ORIGINATOR     = 

OBJECT_NAME    = 1998-067XW
OBJECT_ID      = 1998-067XW
CENTER_NAME    = EARTH
REF_FRAME      = TEME
TIME_SYSTEM    = UTC
MEAN_ELEMENT_THEORY = SGP/SGP4

EPOCH          = 2025-12-12T00:22:58.433376
MEAN_MOTION    = 15.51622834
ECCENTRICITY   = .00053767
INCLINATION    = 51.6296
RA_OF_ASC_NODE = 145.9572
ARG_OF_PERICENTER = 204.7962
MEAN_ANOMALY   = 155.2770

EPHEMERIS_TYPE = 0
CLASSIFICATION_TYPE = U
NORAD_CAT_ID   = 66910
ELEMENT_SET_NO = 999
REV_AT_EPOCH   = 150
BSTAR          = .12086186E-2
MEAN_MOTION_DOT = .73325E-3
MEAN_MOTION_DDOT = 0

CCSDS_OMM_VERS = 2.0
CREATION_DATE  = 
ORIGINATOR     = 

OBJECT_NAME    = 1998-067XX
OBJECT_ID      = 1998-067XX
CENTER_NAME    = EARTH
REF_FRAME      = TEME
TIME_SYSTEM    = UTC
MEAN_ELEMENT_THEORY = SGP/SGP4

EPOCH          = 2025-12-12T03:27:33.883488
MEAN_MOTION    = 15.51877198
ECCENTRICITY   = .00050437
INCLINATION    = 51.6295
RA_OF_ASC_NODE = 145.3134
ARG_OF_PERICENTER = 206.7982
MEAN_ANOMALY   = 153.2747

EPHEMERIS_TYPE = 0
CLASSIFICATION_TYPE = U
NORAD_CAT_ID   = 66911
ELEMENT_SET_NO = 999
REV_AT_EPOCH   = 151
BSTAR          = .15037661E-2
MEAN_MOTION_DOT = .92403E-3
MEAN_MOTION_DDOT = 0

CCSDS_OMM_VERS = 2.0
CREATION_DATE  = 
ORIGINATOR     = 

OBJECT_NAME    = 1998-067XY
OBJECT_ID      = 1998-067XY
CENTER_NAME    = EARTH
REF_FRAME      = TEME
TIME_SYSTEM    = UTC
MEAN_ELEMENT_THEORY = SGP/SGP4

EPOCH          = 2025-12-11T19:48:45.131904
MEAN_MOTION    = 15.51001955
ECCENTRICITY   = .00047052
INCLINATION    = 51.6304
RA_OF_ASC_NODE = 146.9360
ARG_OF_PERICENTER = 217.5082
MEAN_ANOMALY   = 142.5579

EPHEMERIS_TYPE = 0
CLASSIFICATION_TYPE = U
NORAD_CAT_ID   = 66912
ELEMENT_SET_NO = 999
REV_AT_EPOCH   = 146
BSTAR          = .99420433E-3
MEAN_MOTION_DOT = .5879E-3
MEAN_MOTION_DDOT = 0

